{"type": "FeatureCollection", "features": [ {"type": "Feature", "properties": {"norad_id": 31010, "name": "FENGYUN 1C DEB", "group": "fengyun-1c-debris", "lat": 71.17644547956505, "lon": 10.672567782556406, "alt_km": 867.0830882386472, "timestamp": "2025-12-27T06:41:31.206486+00:00", "meta": {"OBJECT_NAME": "FENGYUN 1C DEB", "OBJECT_ID": "1999-025BDC", "EPOCH": "2025-12-26T21:46:56.094816", "MEAN_MOTION": 14.26027308, "ECCENTRICITY": 0.01133785, "INCLINATION": 101.7252, "RA_OF_ASC_NODE": 152.6427, "ARG_OF_PERICENTER": 317.4139, "MEAN_ANOMALY": 41.828, "EPHEMERIS_TYPE": 0, "CLASSIFICATION_TYPE": "U", "NORAD_CAT_ID": 31010, "ELEMENT_SET_NO": 999, "REV_AT_EPOCH": 95831, "BSTAR": 0.0040880364, "MEAN_MOTION_DOT": 0.00010391, "MEAN_MOTION_DDOT": 0}, "tle": {"line1": "1 31010U 99025BDC 25360.90759369  .00010391  00000+0  40880-2 0  9999", "line2": "2 31010 101.7252 152.6427 0113378 317.4139  41.8280 14.26027308958315"}}, "geometry": {"type": "Point", "coordinates": [10.672567782556406, 71.17644547956505]}}, {"type": "Feature", "properties": {"norad_id": 31012, "name": "FENGYUN 1C DEB", "group": "fengyun-1c-debris", "lat": -52.996946205057434, "lon": -88.31243889440634, "alt_km": 812.7773354441088, "timestamp": "2025-12-27T06:41:31.206496+00:00", "meta": {"OBJECT_NAME": "FENGYUN 1C DEB", "OBJECT_ID": "1999-025BDE", "EPOCH": "2025-12-25T16:31:40.864224", "MEAN_MOTION": 14.27874514, "ECCENTRICITY": 0.00816684, "INCLINATION": 98.9114, "RA_OF_ASC_NODE": 258.0495, "ARG_OF_PERICENTER": 213.4298, "MEAN_ANOMALY": 202.3807, "EPHEMERIS_TYPE": 0, "CLASSIFICATION_TYPE": "U", "NORAD_CAT_ID": 31012, "ELEMENT_SET_NO": 999, "REV_AT_EPOCH": 97932, "BSTAR": 0.00017105569, "MEAN_MOTION_DOT": 3.92e-06, "MEAN_MOTION_DDOT": 0}, "tle": {"line1": "1 31012U 99025BDE 25359.68866741  .00000392  00000+0  17106-3 0  9993", "line2": "2 31012  98.9114 258.0495 0081668 213.4298 202.3807 14.27874514979327"}}, "geometry": {"type": "Point", "coordinates": [-88.31243889440634, -52.996946205057434]}}, {"type": "Feature", "properties": {"norad_id": 31014, "name": "FENGYUN 1C DEB", "group": "fengyun-1c-debris", "lat": 72.22062372064735, "lon": -174.4484983909602, "alt_km": 848.5347861724476, "timestamp": "2025-12-27T06:41:31.206506+00:00", "meta": {"OBJECT_NAME": "FENGYUN 1C DEB", "OBJECT_ID": "1999-025BDG", "EPOCH": "2025-12-26T21:52:17.617728", "MEAN_MOTION": 13.98492488, "ECCENTRICITY": 0.00886334, "INCLINATION": 98.8697, "RA_OF_ASC_NODE": 336.0553, "ARG_OF_PERICENTER": 154.4311, "MEAN_ANOMALY": 262.4788, "EPHEMERIS_TYPE": 0, "CLASSIFICATION_TYPE": "U", "NORAD_CAT_ID": 31014, "ELEMENT_SET_NO": 999, "REV_AT_EPOCH": 96034, "BSTAR": -8.8728437e-05, "MEAN_MOTION_DOT": -1.73e-06, "MEAN_MOTION_DDOT": 0}, "tle": {"line1": "1 31014U 99025BDG 25360.91131502 -.00000173  00000+0 -88728-4 0  9991", "line2": "2 31014  98.8697 336.0553 0088633 154.4311 262.4788 13.98492488960345"}}, "geometry": {"type": "Point", "coordinates": [-174.4484983909602, 72.22062372064735]}}, {"type": "Feature", "properties": {"norad_id": 31016, "name": "FENGYUN 1C DEB", "group": "fengyun-1c-debris", "lat": 81.36251870365956, "lon": -85.65814689219178, "alt_km": 842.8980214996764, "timestamp": "2025-12-27T06:41:31.206521+00:00", "meta": {"OBJECT_NAME": "FENGYUN 1C DEB", "OBJECT_ID": "1999-025BDJ", "EPOCH": "2025-12-26T17:08:49.146144", "MEAN_MOTION": 14.30515996, "ECCENTRICITY": 0.01122479, "INCLINATION": 98.4358, "RA_OF_ASC_NODE": 16.1244, "ARG_OF_PERICENTER": 232.5097, "MEAN_ANOMALY": 195.3858, "EPHEMERIS_TYPE": 0, "CLASSIFICATION_TYPE": "U", "NORAD_CAT_ID": 31016, "ELEMENT_SET_NO": 999, "REV_AT_EPOCH": 97670, "BSTAR": 0.00027285605, "MEAN_MOTION_DOT": 7.18e-06, "MEAN_MOTION_DDOT": 0}, "tle": {"line1": "1 31016U 99025BDJ 25360.71445771  .00000718  00000+0  27286-3 0  9991", "line2": "2 31016  98.4358  16.1244 0112247 232.5097 195.3858 14.30515996976704"}}, "geometry": {"type": "Point", "coordinates": [-85.65814689219178, 81.36251870365956]}}, {"type": "Feature", "properties": {"norad_id": 31017, "name": "FENGYUN 1C DEB", "group": "fengyun-1c-debris", "lat": 19.97508167166652, "lon": -16.31026900748792, "alt_km": 836.5268583795587, "timestamp": "2025-12-27T06:41:31.206533+00:00", "meta": {"OBJECT_NAME": "FENGYUN 1C DEB", "OBJECT_ID": "1999-025BDK", "EPOCH": "2025-12-26T22:20:11.884704", "MEAN_MOTION": 14.0884486, "ECCENTRICITY": 0.01125321, "INCLINATION": 98.6808, "RA_OF_ASC_NODE": 346.5377, "ARG_OF_PERICENTER": 309.8868, "MEAN_ANOMALY": 104.4902, "EPHEMERIS_TYPE": 0, "CLASSIFICATION_TYPE": "U", "NORAD_CAT_ID": 31017, "ELEMENT_SET_NO": 999, "REV_AT_EPOCH": 96496, "BSTAR": 0.00044181514, "MEAN_MOTION_DOT": 7.66e-06, "MEAN_MOTION_DDOT": 0}, "tle": {"line1": "1 31017U 99025BDK 25360.93069311  .00000766  00000+0  44182-3 0  9995", "line2": "2 31017  98.6808 346.5377 0112532 309.8868 104.4902 14.08844860964961"}}, "geometry": {"type": "Point", "coordinates": [-16.31026900748792, 19.97508167166652]}}, {"type": "Feature", "properties": {"norad_id": 31018, "name": "FENGYUN 1C DEB", "group": "fengyun-1c-debris", "lat": -52.174373252996446, "lon": 100.07199770920752, "alt_km": 873.5161642269122, "timestamp": "2025-12-27T06:41:31.206543+00:00", "meta": {"OBJECT_NAME": "FENGYUN 1C DEB", "OBJECT_ID": "1999-025BDL", "EPOCH": "2025-12-26T17:23:09.800736", "MEAN_MOTION": 14.17010583, "ECCENTRICITY": 0.00581089, "INCLINATION": 99.0238, "RA_OF_ASC_NODE": 87.699, "ARG_OF_PERICENTER": 86.7244, "MEAN_ANOMALY": 274.0576, "EPHEMERIS_TYPE": 0, "CLASSIFICATION_TYPE": "U", "NORAD_CAT_ID": 31018, "ELEMENT_SET_NO": 999, "REV_AT_EPOCH": 96253, "BSTAR": 0.0015639039, "MEAN_MOTION_DOT": 3.151e-05, "MEAN_MOTION_DDOT": 0}, "tle": {"line1": "1 31018U 99025BDL 25360.72441899  .00003151  00000+0  15639-2 0  9993", "line2": "2 31018  99.0238  87.6990 0058108  86.7244 274.0576 14.17010583962534"}}, "geometry": {"type": "Point", "coordinates": [100.07199770920752, -52.174373252996446]}}, {"type": "Feature", "properties": {"norad_id": 31019, "name": "FENGYUN 1C DEB", "group": "fengyun-1c-debris", "lat": -21.93719701186511, "lon": -162.19667364432615, "alt_km": 1544.4244227409645, "timestamp": "2025-12-27T06:41:31.206553+00:00", "meta": {"OBJECT_NAME": "FENGYUN 1C DEB", "OBJECT_ID": "1999-025BDM", "EPOCH": "2025-12-21T19:04:30.482400", "MEAN_MOTION": 11.82992381, "ECCENTRICITY": 0.11182228, "INCLINATION": 98.7026, "RA_OF_ASC_NODE": 190.6549, "ARG_OF_PERICENTER": 266.0498, "MEAN_ANOMALY": 114.5316, "EPHEMERIS_TYPE": 0, "CLASSIFICATION_TYPE": "U", "NORAD_CAT_ID": 31019, "ELEMENT_SET_NO": 999, "REV_AT_EPOCH": 55288, "BSTAR": 0.0023777333, "MEAN_MOTION_DOT": 8.64e-06, "MEAN_MOTION_DDOT": 0}, "tle": {"line1": "1 31019U 99025BDM 25355.79479725  .00000864  00000+0  23777-2 0  9994", "line2": "2 31019  98.7026 190.6549 1118222 266.0498 114.5316 11.82992381552887"}}, "geometry": {"type": "Point", "coordinates": [-162.19667364432615, -21.93719701186511]}}, {"type": "Feature", "properties": {"norad_id": 31021, "name": "FENGYUN 1C DEB", "group": "fengyun-1c-debris", "lat": -81.64658285901952, "lon": -157.490658568607, "alt_km": 595.8117233099647, "timestamp": "2025-12-27T06:41:31.206563+00:00", "meta": {"OBJECT_NAME": "FENGYUN 1C DEB", "OBJECT_ID": "1999-025BDP", "EPOCH": "2025-12-25T01:23:52.741248", "MEAN_MOTION": 14.75458372, "ECCENTRICITY": 0.02681902, "INCLINATION": 98.3478, "RA_OF_ASC_NODE": 109.946, "ARG_OF_PERICENTER": 202.566, "MEAN_ANOMALY": 156.3576, "EPHEMERIS_TYPE": 0, "CLASSIFICATION_TYPE": "U", "NORAD_CAT_ID": 31021, "ELEMENT_SET_NO": 999, "REV_AT_EPOCH": 73614, "BSTAR": 0.00093996638, "MEAN_MOTION_DOT": 0.00011493, "MEAN_MOTION_DDOT": 0}, "tle": {"line1": "1 31021U 99025BDP 25359.05824932  .00011493  00000+0  93997-3 0  9996", "line2": "2 31021  98.3478 109.9460 0268190 202.5660 156.3576 14.75458372736144"}}, "geometry": {"type": "Point", "coordinates": [-157.490658568607, -81.64658285901952]}}, {"type": "Feature", "properties": {"norad_id": 31022, "name": "FENGYUN 1C DEB", "group": "fengyun-1c-debris", "lat": 39.668657355857974, "lon": -122.71850178507552, "alt_km": 864.0929881177708, "timestamp": "2025-12-27T06:41:31.206573+00:00", "meta": {"OBJECT_NAME": "FENGYUN 1C DEB", "OBJECT_ID": "1999-025BDQ", "EPOCH": "2025-12-23T23:03:36.550080", "MEAN_MOTION": 13.90460502, "ECCENTRICITY": 0.0110336, "INCLINATION": 99.5163, "RA_OF_ASC_NODE": 241.8824, "ARG_OF_PERICENTER": 91.8783, "MEAN_ANOMALY": 269.5015, "EPHEMERIS_TYPE": 0, "CLASSIFICATION_TYPE": "U", "NORAD_CAT_ID": 31022, "ELEMENT_SET_NO": 999, "REV_AT_EPOCH": 62164, "BSTAR": 0.00047398, "MEAN_MOTION_DOT": 5.73e-06, "MEAN_MOTION_DDOT": 0}, "tle": {"line1": "1 31022U 99025BDQ 25357.96083970  .00000573  00000+0  47398-3 0  9995", "line2": "2 31022  99.5163 241.8824 0110336  91.8783 269.5015 13.90460502621649"}}, "geometry": {"type": "Point", "coordinates": [-122.71850178507552, 39.668657355857974]}}, {"type": "Feature", "properties": {"norad_id": 31023, "name": "FENGYUN 1C DEB", "group": "fengyun-1c-debris", "lat": -77.58776532390442, "lon": 121.52694340915471, "alt_km": 867.8918959087041, "timestamp": "2025-12-27T06:41:31.206604+00:00", "meta": {"OBJECT_NAME": "FENGYUN 1C DEB", "OBJECT_ID": "1999-025BDR", "EPOCH": "2025-12-20T19:49:13.315584", "MEAN_MOTION": 14.06693358, "ECCENTRICITY": 0.00824044, "INCLINATION": 98.8149, "RA_OF_ASC_NODE": 340.0727, "ARG_OF_PERICENTER": 198.6079, "MEAN_ANOMALY": 161.2072, "EPHEMERIS_TYPE": 0, "CLASSIFICATION_TYPE": "U", "NORAD_CAT_ID": 31023, "ELEMENT_SET_NO": 999, "REV_AT_EPOCH": 69615, "BSTAR": 0.00023624773, "MEAN_MOTION_DOT": 3.61e-06, "MEAN_MOTION_DDOT": 0}, "tle": {"line1": "1 31023U 99025BDR 25354.82584856  .00000361  00000+0  23625-3 0  9999", "line2": "2 31023  98.8149 340.0727 0082404 198.6079 161.2072 14.06693358696152"}}, "geometry": {"type": "Point", "coordinates": [121.52694340915471, -77.58776532390442]}}]}